ONEWEB-0218             
1 48214U 21031E   25264.17714640 -.00000138  00000+0 -40750-3 0  9997
2 48214  87.9090 343.2470 0001664 131.7803 228.3469 13.14504735213033
ONEWEB-0209             
1 48215U 21031F   25264.24217269 -.00000076  00000+0 -23903-3 0  9993
2 48215  87.9081 343.2766 0002026 103.1060 257.0297 13.14504626213041
ONEWEB-0198             
1 48216U 21031G   25264.22642998  .00000124  00000+0  29982-3 0  9998
2 48216  87.9077 343.2793 0001933 114.5376 245.5955 13.14504281213151
ONEWEB-0189             
1 48217U 21031H   25264.23898593 -.00000292  00000+0 -82263-3 0  9993
2 48217  87.9076 343.2498 0001895 112.5938 247.5392 13.14501699212899
ONEWEB-0196             
1 48218U 21031J   25264.21679373  .00000259  00000+0  66520-3 0  9994
2 48218  87.9081 343.2697 0001898 104.2765 255.8575 13.14504456212895
ONEWEB-0183             
1 48219U 21031K   25264.19142269 -.00000038  00000+0 -13575-3 0  9990
2 48219  87.9078 343.2841 0002014  96.6709 263.4650 13.14503440212987
ONEWEB-0185             
1 48220U 21031L   25264.21758425  .00000251  00000+0  64340-3 0  9993
2 48220  87.9077 343.2460 0002258 100.9204 259.2180 13.14501860212912
ONEWEB-0187             
1 48221U 21031M   25264.19764787  .00000098  00000+0  22976-3 0  9997
2 48221  87.9080 343.2962 0002108 105.0311 255.1052 13.14504643212929
ONEWEB-0192             
1 48222U 21031N   25264.24374361 -.00000141  00000+0 -41426-3 0  9991
2 48222  87.9078 343.2801 0001822 103.4495 256.6838 13.14504590212846
ONEWEB-0219             
1 48223U 21031P   25264.22314145  .00000145  00000+0  35779-3 0  9990
2 48223  87.9077 343.2567 0002095 102.6714 257.4650 13.14503623213043
ONEWEB-0202             
1 48224U 21031Q   25264.20411050  .00000248  00000+0  63449-3 0  9991
2 48224  87.9077 343.2747 0001860 124.4279 235.7027 13.14503792213023
ONEWEB-0204             
1 48225U 21031R   25264.23819116 -.00000110  00000+0 -33176-3 0  9994
2 48225  87.9072 343.2573 0001988  92.6718 267.4639 13.14504191212924
ONEWEB-0205             
1 48226U 21031S   25264.21361874  .00000288  00000+0  74139-3 0  9994
2 48226  87.9079 343.2536 0002012 102.9020 257.2335 13.14504538212937
ONEWEB-0206             
1 48227U 21031T   25264.18665376  .00000022  00000+0  24297-4 0  9992
2 48227  87.9072 343.2394 0001912  95.6011 264.5336 13.14510431212884
ONEWEB-0182             
1 48228U 21031U   25264.18190702 -.00000103  00000+0 -31308-3 0  9991
2 48228  87.9078 343.2856 0002016  95.5464 264.5895 13.14503836213096
ONEWEB-0186             
1 48229U 21031V   25264.19300431  .00000061  00000+0  13106-3 0  9992
2 48229  87.9088 343.2471 0001912 102.7183 257.4160 13.14504204213045
