[{"OBJECT_NAME":"ONEWEB-0218","OBJECT_ID":"2021-031E","EPOCH":"2025-09-21T04:15:05.448960","MEAN_MOTION":13.14504735,"ECCENTRICITY":0.0001664,"INCLINATION":87.909,"RA_OF_ASC_NODE":343.247,"ARG_OF_PERICENTER":131.7803,"MEAN_ANOMALY":228.3469,"EPHEMERIS_TYPE":0,"CLASSIFICATION_TYPE":"U","NORAD_CAT_ID":48214,"ELEMENT_SET_NO":999,"REV_AT_EPOCH":21303,"BSTAR":-0.00040750191,"MEAN_MOTION_DOT":-1.38e-6,"MEAN_MOTION_DDOT":0},{"OBJECT_NAME":"ONEWEB-0209","OBJECT_ID":"2021-031F","EPOCH":"2025-09-21T05:48:43.720416","MEAN_MOTION":13.14504626,"ECCENTRICITY":0.00020267,"INCLINATION":87.9081,"RA_OF_ASC_NODE":343.2766,"ARG_OF_PERICENTER":103.106,"MEAN_ANOMALY":257.0297,"EPHEMERIS_TYPE":0,"CLASSIFICATION_TYPE":"U","NORAD_CAT_ID":48215,"ELEMENT_SET_NO":999,"REV_AT_EPOCH":21304,"BSTAR":-0.00023903462,"MEAN_MOTION_DOT":-7.6e-7,"MEAN_MOTION_DDOT":0},{"OBJECT_NAME":"ONEWEB-0198","OBJECT_ID":"2021-031G","EPOCH":"2025-09-21T05:26:03.550272","MEAN_MOTION":13.14504281,"ECCENTRICITY":0.00019339,"INCLINATION":87.9077,"RA_OF_ASC_NODE":343.2793,"ARG_OF_PERICENTER":114.5376,"MEAN_ANOMALY":245.5955,"EPHEMERIS_TYPE":0,"CLASSIFICATION_TYPE":"U","NORAD_CAT_ID":48216,"ELEMENT_SET_NO":999,"REV_AT_EPOCH":21315,"BSTAR":0.00029982047,"MEAN_MOTION_DOT":1.24e-6,"MEAN_MOTION_DDOT":0},{"OBJECT_NAME":"ONEWEB-0189","OBJECT_ID":"2021-031H","EPOCH":"2025-09-21T05:44:08.384352","MEAN_MOTION":13.14501699,"ECCENTRICITY":0.00018953,"INCLINATION":87.9076,"RA_OF_ASC_NODE":343.2498,"ARG_OF_PERICENTER":112.5938,"MEAN_ANOMALY":247.5392,"EPHEMERIS_TYPE":0,"CLASSIFICATION_TYPE":"U","NORAD_CAT_ID":48217,"ELEMENT_SET_NO":999,"REV_AT_EPOCH":21289,"BSTAR":-0.0008226283,"MEAN_MOTION_DOT":-2.92e-6,"MEAN_MOTION_DDOT":0},{"OBJECT_NAME":"ONEWEB-0196","OBJECT_ID":"2021-031J","EPOCH":"2025-09-21T05:12:10.978272","MEAN_MOTION":13.14504456,"ECCENTRICITY":0.00018985,"INCLINATION":87.9081,"RA_OF_ASC_NODE":343.2697,"ARG_OF_PERICENTER":104.2765,"MEAN_ANOMALY":255.8575,"EPHEMERIS_TYPE":0,"CLASSIFICATION_TYPE":"U","NORAD_CAT_ID":48218,"ELEMENT_SET_NO":999,"REV_AT_EPOCH":21289,"BSTAR":0.00066519744,"MEAN_MOTION_DOT":2.59e-6,"MEAN_MOTION_DDOT":0},{"OBJECT_NAME":"ONEWEB-0183","OBJECT_ID":"2021-031K","EPOCH":"2025-09-21T04:35:38.920416","MEAN_MOTION":13.1450344,"ECCENTRICITY":0.00020148,"INCLINATION":87.9078,"RA_OF_ASC_NODE":343.2841,"ARG_OF_PERICENTER":96.6709,"MEAN_ANOMALY":263.465,"EPHEMERIS_TYPE":0,"CLASSIFICATION_TYPE":"U","NORAD_CAT_ID":48219,"ELEMENT_SET_NO":999,"REV_AT_EPOCH":21298,"BSTAR":-0.000135747,"MEAN_MOTION_DOT":-3.8e-7,"MEAN_MOTION_DDOT":0},{"OBJECT_NAME":"ONEWEB-0185","OBJECT_ID":"2021-031L","EPOCH":"2025-09-21T05:13:19.279200","MEAN_MOTION":13.1450186,"ECCENTRICITY":0.00022584,"INCLINATION":87.9077,"RA_OF_ASC_NODE":343.246,"ARG_OF_PERICENTER":100.9204,"MEAN_ANOMALY":259.218,"EPHEMERIS_TYPE":0,"CLASSIFICATION_TYPE":"U","NORAD_CAT_ID":48220,"ELEMENT_SET_NO":999,"REV_AT_EPOCH":21291,"BSTAR":0.00064339848,"MEAN_MOTION_DOT":2.51e-6,"MEAN_MOTION_DDOT":0},{"OBJECT_NAME":"ONEWEB-0187","OBJECT_ID":"2021-031M","EPOCH":"2025-09-21T04:44:36.775968","MEAN_MOTION":13.14504643,"ECCENTRICITY":0.00021088,"INCLINATION":87.908,"RA_OF_ASC_NODE":343.2962,"ARG_OF_PERICENTER":105.0311,"MEAN_ANOMALY":255.1052,"EPHEMERIS_TYPE":0,"CLASSIFICATION_TYPE":"U","NORAD_CAT_ID":48221,"ELEMENT_SET_NO":999,"REV_AT_EPOCH":21292,"BSTAR":0.00022976215,"MEAN_MOTION_DOT":9.8e-7,"MEAN_MOTION_DDOT":0},{"OBJECT_NAME":"ONEWEB-0192","OBJECT_ID":"2021-031N","EPOCH":"2025-09-21T05:50:59.447904","MEAN_MOTION":13.1450459,"ECCENTRICITY":0.00018224,"INCLINATION":87.9078,"RA_OF_ASC_NODE":343.2801,"ARG_OF_PERICENTER":103.4495,"MEAN_ANOMALY":256.6838,"EPHEMERIS_TYPE":0,"CLASSIFICATION_TYPE":"U","NORAD_CAT_ID":48222,"ELEMENT_SET_NO":999,"REV_AT_EPOCH":21284,"BSTAR":-0.00041425577,"MEAN_MOTION_DOT":-1.41e-6,"MEAN_MOTION_DDOT":0},{"OBJECT_NAME":"ONEWEB-0219","OBJECT_ID":"2021-031P","EPOCH":"2025-09-21T05:21:19.421280","MEAN_MOTION":13.14503623,"ECCENTRICITY":0.00020957,"INCLINATION":87.9077,"RA_OF_ASC_NODE":343.2567,"ARG_OF_PERICENTER":102.6714,"MEAN_ANOMALY":257.465,"EPHEMERIS_TYPE":0,"CLASSIFICATION_TYPE":"U","NORAD_CAT_ID":48223,"ELEMENT_SET_NO":999,"REV_AT_EPOCH":21304,"BSTAR":0.00035778837,"MEAN_MOTION_DOT":1.45e-6,"MEAN_MOTION_DDOT":0},{"OBJECT_NAME":"ONEWEB-0202","OBJECT_ID":"2021-031Q","EPOCH":"2025-09-21T04:53:55.147200","MEAN_MOTION":13.14503792,"ECCENTRICITY":0.00018602,"INCLINATION":87.9077,"RA_OF_ASC_NODE":343.2747,"ARG_OF_PERICENTER":124.4279,"MEAN_ANOMALY":235.7027,"EPHEMERIS_TYPE":0,"CLASSIFICATION_TYPE":"U","NORAD_CAT_ID":48224,"ELEMENT_SET_NO":999,"REV_AT_EPOCH":21302,"BSTAR":0.00063449253,"MEAN_MOTION_DOT":2.48e-6,"MEAN_MOTION_DDOT":0},{"OBJECT_NAME":"ONEWEB-0204","OBJECT_ID":"2021-031R","EPOCH":"2025-09-21T05:42:59.716224","MEAN_MOTION":13.14504191,"ECCENTRICITY":0.00019887,"INCLINATION":87.9072,"RA_OF_ASC_NODE":343.2573,"ARG_OF_PERICENTER":92.6718,"MEAN_ANOMALY":267.4639,"EPHEMERIS_TYPE":0,"CLASSIFICATION_TYPE":"U","NORAD_CAT_ID":48225,"ELEMENT_SET_NO":999,"REV_AT_EPOCH":21292,"BSTAR":-0.00033175705,"MEAN_MOTION_DOT":-1.1e-6,"MEAN_MOTION_DDOT":0},{"OBJECT_NAME":"ONEWEB-0205","OBJECT_ID":"2021-031S","EPOCH":"2025-09-21T05:07:36.659136","MEAN_MOTION":13.14504538,"ECCENTRICITY":0.00020125,"INCLINATION":87.9079,"RA_OF_ASC_NODE":343.2536,"ARG_OF_PERICENTER":102.902,"MEAN_ANOMALY":257.2335,"EPHEMERIS_TYPE":0,"CLASSIFICATION_TYPE":"U","NORAD_CAT_ID":48226,"ELEMENT_SET_NO":999,"REV_AT_EPOCH":21293,"BSTAR":0.00074139344,"MEAN_MOTION_DOT":2.88e-6,"MEAN_MOTION_DDOT":0},{"OBJECT_NAME":"ONEWEB-0206","OBJECT_ID":"2021-031T","EPOCH":"2025-09-21T04:28:46.884864","MEAN_MOTION":13.14510431,"ECCENTRICITY":0.0001912,"INCLINATION":87.9072,"RA_OF_ASC_NODE":343.2394,"ARG_OF_PERICENTER":95.6011,"MEAN_ANOMALY":264.5336,"EPHEMERIS_TYPE":0,"CLASSIFICATION_TYPE":"U","NORAD_CAT_ID":48227,"ELEMENT_SET_NO":999,"REV_AT_EPOCH":21288,"BSTAR":2.4296584e-5,"MEAN_MOTION_DOT":2.2e-7,"MEAN_MOTION_DDOT":0},{"OBJECT_NAME":"ONEWEB-0182","OBJECT_ID":"2021-031U","EPOCH":"2025-09-21T04:21:56.766528","MEAN_MOTION":13.14503836,"ECCENTRICITY":0.00020166,"INCLINATION":87.9078,"RA_OF_ASC_NODE":343.2856,"ARG_OF_PERICENTER":95.5464,"MEAN_ANOMALY":264.5895,"EPHEMERIS_TYPE":0,"CLASSIFICATION_TYPE":"U","NORAD_CAT_ID":48228,"ELEMENT_SET_NO":999,"REV_AT_EPOCH":21309,"BSTAR":-0.00031307869,"MEAN_MOTION_DOT":-1.03e-6,"MEAN_MOTION_DDOT":0},{"OBJECT_NAME":"ONEWEB-0186","OBJECT_ID":"2021-031V","EPOCH":"2025-09-21T04:37:55.572384","MEAN_MOTION":13.14504204,"ECCENTRICITY":0.00019122,"INCLINATION":87.9088,"RA_OF_ASC_NODE":343.2471,"ARG_OF_PERICENTER":102.7183,"MEAN_ANOMALY":257.416,"EPHEMERIS_TYPE":0,"CLASSIFICATION_TYPE":"U","NORAD_CAT_ID":48229,"ELEMENT_SET_NO":999,"REV_AT_EPOCH":21304,"BSTAR":0.00013105768,"MEAN_MOTION_DOT":6.1e-7,"MEAN_MOTION_DDOT":0}]
